STARLINK-36835          
1 67863U 26034P   26056.98000394 -.00135727  17228-4 -34348-3 0  9993
2 67863  53.1518 270.1283 0001596 346.5551  13.5435 15.94344069  2084
STARLINK-36831          
1 67864U 26034Q   26056.97972786 -.00124043  16221-4 -31092-3 0  9990
2 67864  53.1521 270.1265 0001960 357.5746   2.5273 15.94474564  2084
STARLINK-36738          
1 67865U 26034R   26056.72870815 -.00504377  94017-4 -12416-2 0  9993
2 67865  53.1526 271.4071 0000382 111.8696 248.2373 15.95239061  2049
STARLINK-36780          
1 67866U 26034S   26056.72843367 -.00472154  84205-4 -11524-2 0  9990
2 67866  53.1519 271.4047 0000743 339.0966  21.0033 15.95386196  2042
STARLINK-36761          
1 67867U 26034T   26056.97883288  .00127750  17517-4  32939-3 0  9997
2 67867  53.1516 270.1198 0002697   1.3320 358.7716 15.94989260  2088
STARLINK-36762          
1 67868U 26034U   26056.97851925 -.00345815  50768-4 -86098-3 0  9997
2 67868  53.1519 270.1179 0001905  26.3236 333.7889 15.94955134  2082
STARLINK-36779          
1 67869U 26034V   26056.72759630 -.00507578  95557-4 -12132-2 0  9999
2 67869  53.1522 271.3996 0000517  52.4052 307.7024 15.95785069  2048
STARLINK-36770          
1 67870U 26034W   26056.97762130 -.00328165  47077-4 -79812-3 0  9993
2 67870  53.1513 270.1116 0001809  14.5455 345.5626 15.95378172  2087
STARLINK-36769          
1 67871U 26034X   26056.97790579 -.00332644  47988-4 -81500-3 0  9997
2 67871  53.1512 270.1136 0001846  13.3459 346.7618 15.95244614  2088
STARLINK-36786          
1 67872U 26034Y   26056.85203009 -.00417657  69037-4 -99267-3 0  9998
2 67872  53.1513 270.7512 0001117 316.2518  43.8422 15.95852461  2067
STARLINK-36783          
1 67873U 26034Z   26056.85175279 -.00306385  42797-4 -71780-3 0  9995
2 67873  53.1512 270.7492 0001237 312.9733  47.1193 15.96052647  2060
STARLINK-36730          
1 67874U 26034AA  26056.85149097 -.00414262  68298-4 -97075-3 0  9998
2 67874  53.1516 270.7479 0001003 324.4302  35.6660 15.96111075  2063
