CCSDS_OMM_VERS = 2.0
CREATION_DATE  = 
ORIGINATOR     = 

OBJECT_NAME    = STARLINK-36835
OBJECT_ID      = 2026-034P
CENTER_NAME    = EARTH
REF_FRAME      = TEME
TIME_SYSTEM    = UTC
MEAN_ELEMENT_THEORY = SGP/SGP4

EPOCH          = 2026-02-25T23:31:12.340416
MEAN_MOTION    = 15.94344069
ECCENTRICITY   = .0001596
INCLINATION    = 53.1518
RA_OF_ASC_NODE = 270.1283
ARG_OF_PERICENTER = 346.5551
MEAN_ANOMALY   = 13.5435

EPHEMERIS_TYPE = 0
CLASSIFICATION_TYPE = U
NORAD_CAT_ID   = 67863
ELEMENT_SET_NO = 999
REV_AT_EPOCH   = 208
BSTAR          = -.34348E-3
MEAN_MOTION_DOT = -.135727E-2
MEAN_MOTION_DDOT = .17228E-4

CCSDS_OMM_VERS = 2.0
CREATION_DATE  = 
ORIGINATOR     = 

OBJECT_NAME    = STARLINK-36831
OBJECT_ID      = 2026-034Q
CENTER_NAME    = EARTH
REF_FRAME      = TEME
TIME_SYSTEM    = UTC
MEAN_ELEMENT_THEORY = SGP/SGP4

EPOCH          = 2026-02-25T23:30:48.487104
MEAN_MOTION    = 15.94474564
ECCENTRICITY   = .000196
INCLINATION    = 53.1521
RA_OF_ASC_NODE = 270.1265
ARG_OF_PERICENTER = 357.5746
MEAN_ANOMALY   = 2.5273

EPHEMERIS_TYPE = 0
CLASSIFICATION_TYPE = U
NORAD_CAT_ID   = 67864
ELEMENT_SET_NO = 999
REV_AT_EPOCH   = 208
BSTAR          = -.31092E-3
MEAN_MOTION_DOT = -.124043E-2
MEAN_MOTION_DDOT = .16221E-4

CCSDS_OMM_VERS = 2.0
CREATION_DATE  = 
ORIGINATOR     = 

OBJECT_NAME    = STARLINK-36738
OBJECT_ID      = 2026-034R
CENTER_NAME    = EARTH
REF_FRAME      = TEME
TIME_SYSTEM    = UTC
MEAN_ELEMENT_THEORY = SGP/SGP4

EPOCH          = 2026-02-25T17:29:20.384160
MEAN_MOTION    = 15.95239061
ECCENTRICITY   = .0000382
INCLINATION    = 53.1526
RA_OF_ASC_NODE = 271.4071
ARG_OF_PERICENTER = 111.8696
MEAN_ANOMALY   = 248.2373

EPHEMERIS_TYPE = 0
CLASSIFICATION_TYPE = U
NORAD_CAT_ID   = 67865
ELEMENT_SET_NO = 999
REV_AT_EPOCH   = 204
BSTAR          = -.12416E-2
MEAN_MOTION_DOT = -.504377E-2
MEAN_MOTION_DDOT = .94017E-4

CCSDS_OMM_VERS = 2.0
CREATION_DATE  = 
ORIGINATOR     = 

OBJECT_NAME    = STARLINK-36780
OBJECT_ID      = 2026-034S
CENTER_NAME    = EARTH
REF_FRAME      = TEME
TIME_SYSTEM    = UTC
MEAN_ELEMENT_THEORY = SGP/SGP4

EPOCH          = 2026-02-25T17:28:56.669088
MEAN_MOTION    = 15.95386196
ECCENTRICITY   = .0000743
INCLINATION    = 53.1519
RA_OF_ASC_NODE = 271.4047
ARG_OF_PERICENTER = 339.0966
MEAN_ANOMALY   = 21.0033

EPHEMERIS_TYPE = 0
CLASSIFICATION_TYPE = U
NORAD_CAT_ID   = 67866
ELEMENT_SET_NO = 999
REV_AT_EPOCH   = 204
BSTAR          = -.11524E-2
MEAN_MOTION_DOT = -.472154E-2
MEAN_MOTION_DDOT = .84205E-4

CCSDS_OMM_VERS = 2.0
CREATION_DATE  = 
ORIGINATOR     = 

OBJECT_NAME    = STARLINK-36761
OBJECT_ID      = 2026-034T
CENTER_NAME    = EARTH
REF_FRAME      = TEME
TIME_SYSTEM    = UTC
MEAN_ELEMENT_THEORY = SGP/SGP4

EPOCH          = 2026-02-25T23:29:31.160832
MEAN_MOTION    = 15.94989260
ECCENTRICITY   = .0002697
INCLINATION    = 53.1516
RA_OF_ASC_NODE = 270.1198
ARG_OF_PERICENTER = 1.3320
MEAN_ANOMALY   = 358.7716

EPHEMERIS_TYPE = 0
CLASSIFICATION_TYPE = U
NORAD_CAT_ID   = 67867
ELEMENT_SET_NO = 999
REV_AT_EPOCH   = 208
BSTAR          = .32939E-3
MEAN_MOTION_DOT = .12775E-2
MEAN_MOTION_DDOT = .17517E-4

CCSDS_OMM_VERS = 2.0
CREATION_DATE  = 
ORIGINATOR     = 

OBJECT_NAME    = STARLINK-36762
OBJECT_ID      = 2026-034U
CENTER_NAME    = EARTH
REF_FRAME      = TEME
TIME_SYSTEM    = UTC
MEAN_ELEMENT_THEORY = SGP/SGP4

EPOCH          = 2026-02-25T23:29:04.063200
MEAN_MOTION    = 15.94955134
ECCENTRICITY   = .0001905
INCLINATION    = 53.1519
RA_OF_ASC_NODE = 270.1179
ARG_OF_PERICENTER = 26.3236
MEAN_ANOMALY   = 333.7889

EPHEMERIS_TYPE = 0
CLASSIFICATION_TYPE = U
NORAD_CAT_ID   = 67868
ELEMENT_SET_NO = 999
REV_AT_EPOCH   = 208
BSTAR          = -.86098E-3
MEAN_MOTION_DOT = -.345815E-2
MEAN_MOTION_DDOT = .50768E-4

CCSDS_OMM_VERS = 2.0
CREATION_DATE  = 
ORIGINATOR     = 

OBJECT_NAME    = STARLINK-36779
OBJECT_ID      = 2026-034V
CENTER_NAME    = EARTH
REF_FRAME      = TEME
TIME_SYSTEM    = UTC
MEAN_ELEMENT_THEORY = SGP/SGP4

EPOCH          = 2026-02-25T17:27:44.320320
MEAN_MOTION    = 15.95785069
ECCENTRICITY   = .0000517
INCLINATION    = 53.1522
RA_OF_ASC_NODE = 271.3996
ARG_OF_PERICENTER = 52.4052
MEAN_ANOMALY   = 307.7024

EPHEMERIS_TYPE = 0
CLASSIFICATION_TYPE = U
NORAD_CAT_ID   = 67869
ELEMENT_SET_NO = 999
REV_AT_EPOCH   = 204
BSTAR          = -.12132E-2
MEAN_MOTION_DOT = -.507578E-2
MEAN_MOTION_DDOT = .95557E-4

CCSDS_OMM_VERS = 2.0
CREATION_DATE  = 
ORIGINATOR     = 

OBJECT_NAME    = STARLINK-36770
OBJECT_ID      = 2026-034W
CENTER_NAME    = EARTH
REF_FRAME      = TEME
TIME_SYSTEM    = UTC
MEAN_ELEMENT_THEORY = SGP/SGP4

EPOCH          = 2026-02-25T23:27:46.480320
MEAN_MOTION    = 15.95378172
ECCENTRICITY   = .0001809
INCLINATION    = 53.1513
RA_OF_ASC_NODE = 270.1116
ARG_OF_PERICENTER = 14.5455
MEAN_ANOMALY   = 345.5626

EPHEMERIS_TYPE = 0
CLASSIFICATION_TYPE = U
NORAD_CAT_ID   = 67870
ELEMENT_SET_NO = 999
REV_AT_EPOCH   = 208
BSTAR          = -.79812E-3
MEAN_MOTION_DOT = -.328165E-2
MEAN_MOTION_DDOT = .47077E-4

CCSDS_OMM_VERS = 2.0
CREATION_DATE  = 
ORIGINATOR     = 

OBJECT_NAME    = STARLINK-36769
OBJECT_ID      = 2026-034X
CENTER_NAME    = EARTH
REF_FRAME      = TEME
TIME_SYSTEM    = UTC
MEAN_ELEMENT_THEORY = SGP/SGP4

EPOCH          = 2026-02-25T23:28:11.060256
MEAN_MOTION    = 15.95244614
ECCENTRICITY   = .0001846
INCLINATION    = 53.1512
RA_OF_ASC_NODE = 270.1136
ARG_OF_PERICENTER = 13.3459
MEAN_ANOMALY   = 346.7618

EPHEMERIS_TYPE = 0
CLASSIFICATION_TYPE = U
NORAD_CAT_ID   = 67871
ELEMENT_SET_NO = 999
REV_AT_EPOCH   = 208
BSTAR          = -.815E-3
MEAN_MOTION_DOT = -.332644E-2
MEAN_MOTION_DDOT = .47988E-4

CCSDS_OMM_VERS = 2.0
CREATION_DATE  = 
ORIGINATOR     = 

OBJECT_NAME    = STARLINK-36786
OBJECT_ID      = 2026-034Y
CENTER_NAME    = EARTH
REF_FRAME      = TEME
TIME_SYSTEM    = UTC
MEAN_ELEMENT_THEORY = SGP/SGP4

EPOCH          = 2026-02-25T20:26:55.399776
MEAN_MOTION    = 15.95852461
ECCENTRICITY   = .0001117
INCLINATION    = 53.1513
RA_OF_ASC_NODE = 270.7512
ARG_OF_PERICENTER = 316.2518
MEAN_ANOMALY   = 43.8422

EPHEMERIS_TYPE = 0
CLASSIFICATION_TYPE = U
NORAD_CAT_ID   = 67872
ELEMENT_SET_NO = 999
REV_AT_EPOCH   = 206
BSTAR          = -.99267E-3
MEAN_MOTION_DOT = -.417657E-2
MEAN_MOTION_DDOT = .69037E-4

CCSDS_OMM_VERS = 2.0
CREATION_DATE  = 
ORIGINATOR     = 

OBJECT_NAME    = STARLINK-36783
OBJECT_ID      = 2026-034Z
CENTER_NAME    = EARTH
REF_FRAME      = TEME
TIME_SYSTEM    = UTC
MEAN_ELEMENT_THEORY = SGP/SGP4

EPOCH          = 2026-02-25T20:26:31.441056
MEAN_MOTION    = 15.96052647
ECCENTRICITY   = .0001237
INCLINATION    = 53.1512
RA_OF_ASC_NODE = 270.7492
ARG_OF_PERICENTER = 312.9733
MEAN_ANOMALY   = 47.1193

EPHEMERIS_TYPE = 0
CLASSIFICATION_TYPE = U
NORAD_CAT_ID   = 67873
ELEMENT_SET_NO = 999
REV_AT_EPOCH   = 206
BSTAR          = -.7178E-3
MEAN_MOTION_DOT = -.306385E-2
MEAN_MOTION_DDOT = .42797E-4

CCSDS_OMM_VERS = 2.0
CREATION_DATE  = 
ORIGINATOR     = 

OBJECT_NAME    = STARLINK-36730
OBJECT_ID      = 2026-034AA
CENTER_NAME    = EARTH
REF_FRAME      = TEME
TIME_SYSTEM    = UTC
MEAN_ELEMENT_THEORY = SGP/SGP4

EPOCH          = 2026-02-25T20:26:08.819808
MEAN_MOTION    = 15.96111075
ECCENTRICITY   = .0001003
INCLINATION    = 53.1516
RA_OF_ASC_NODE = 270.7479
ARG_OF_PERICENTER = 324.4302
MEAN_ANOMALY   = 35.6660

EPHEMERIS_TYPE = 0
CLASSIFICATION_TYPE = U
NORAD_CAT_ID   = 67874
ELEMENT_SET_NO = 999
REV_AT_EPOCH   = 206
BSTAR          = -.97075E-3
MEAN_MOTION_DOT = -.414262E-2
MEAN_MOTION_DDOT = .68298E-4

